P/2011 U2 (Bressi),e,10.0389,263.8976,141.6412,5.063366,0.0865058,0.11101445,224.6633,02/17.0/2019,2000,g 10.0,4.0
# From MPC 78186
C/2011 U3 (PANSTARRS),e,116.7099,228.1741,287.8317,2079,0.0000104,0.99947962,0.0000,06/01.2434/2012,2000,g 14.0,4.0
# From MPC 79022
P/2011 UA134 (Spacewatch-PANSTARRS),e,10.4645,40.5355,32.5306,5.597411,0.0744258,0.62947948,196.4020,02/17.0/2019,2000,g 17.5,4.0
# From MPC 88325
C/2011 UF305 (LINEAR),e,94.0532,297.7018,121.9964,3284,0.0000052,0.99934836,0.0000,07/21.5512/2012,2000,g  9.0,4.0
# From MPC 77406
P/2011 V1 (Boattini),e,7.3802,46.8688,269.1704,3.851391,0.1304000,0.55038675,18.0058,02/17.0/2019,2000,g 15.5,4.0
# From MPC 82718
P/2011 W1 (PANSTARRS),e,3.7182,161.7917,282.7348,4.659208,0.0980022,0.28634297,253.4304,02/17.0/2019,2000,g 11.5,4.0
# From MPC 77807
C/2011 W3 (Lovejoy),e,136.5926,330.6674,56.7746,71.47064,0.0016312,0.99990615,0.0000,12/15.3135/2011,2000,g 14.5,4.0
# From MPC109140
P/2011 WG113 (PANSTARRS),e,9.8399,87.4366,66.3550,3.185135,0.1733853,0.57371434,64.3601,02/17.0/2019,2000,g 17.0,4.0
# From MPC 79342
P/2011 Y2 (Boattini),e,6.3710,309.3734,132.0273,6.239344,0.0632406,0.70938028,160.1201,02/17.0/2019,2000,g 15.0,4.0
# From MPC 79342
C/2011 Y3 (Boattini),e,26.5027,84.9019,340.4824,11.74549,0.0244848,0.70152595,67.1251,02/17.0/2019,2000,g  8.0,4.0
# From MPC 93583
C/2012 A1 (PANSTARRS),h,12/03.3850/2013,120.9337,278.0646,192.0249,1.001676,7.596799,2000,6.0,4.0
# From MPC 91611
C/2012 A2 (LINEAR),e,125.8621,191.3771,101.5714,1195,0.0000239,0.99705209,0.0000,11/06.8299/2012,2000,g  8.5,4.0
# From MPC 80898
P/2012 A3 (SOHO),e,11.0347,174.8140,219.5888,2.586233,0.2369751,0.77044294,254.6491,02/17.0/2019,2000,g 17.0,4.0
# From MPC 94669
P/2012 B1 (PANSTARRS),e,7.6219,36.1658,162.5785,6.521143,0.0591859,0.41124207,120.3739,02/17.0/2019,2000,g  9.0,4.0
# From MPC 82719
C/2012 B3 (La Sagra),h,12/07.4687/2011,107.0878,252.9671,50.8471,1.000130,3.546505,2000,10.0,4.0
# From MPC 83519
C/2012 BJ98 (Lemmon),e,2.6332,123.9628,73.2285,17.28813,0.0137114,0.87456480,32.0915,02/17.0/2019,2000,g 12.5,4.0
# From MPC 89309
C/2012 C1 (McNaught),e,96.1648,300.5894,279.8596,1957,0.0000114,0.99752826,0.0000,02/03.9676/2013,2000,g  7.5,4.0
# From MPC 80898
C/2012 C2 (Bruenjes),h,03/11.9911/2012,162.7137,117.7911,62.2734,1.002567,0.791612,2000,17.0,4.0
# From MPC 78590
P/2012 C3 (PANSTARRS),e,9.0920,135.3677,344.9542,9.748681,0.0323806,0.63011148,359.9758,10/06.0/2011,2000,g 13.0,4.0
# From MPC 84022
C/2012 CH17 (MOSS),e,27.7811,125.6630,138.1316,5993,0.0000021,0.99978516,0.0000,09/30.2470/2012,2000,g 11.0,4.0
# From MPC 84022
C/2012 E1 (Hill),e,122.6277,286.2401,48.8920,1236,0.0000227,0.99391792,0.0000,07/02.0685/2011,2000,g  6.5,4.0
# From MPC 82318
C/2012 E3 (PANSTARRS),e,105.6274,5.5670,103.6189,204.6788,0.0003366,0.98119794,0.0000,05/08.7313/2011,2000,g 10.0,4.0
# From MPC 79868
C/2012 F1 (Gibbs),e,159.5745,130.5194,301.1358,73.60941,0.0015606,0.96514524,3.9872,02/17.0/2019,2000,g 14.0,4.0
# From MPC 84931
P/2012 F2 (PANSTARRS),e,14.7423,227.0878,33.1441,6.324604,0.0619661,0.54330598,132.3952,02/17.0/2019,2000,g 12.0,4.0
# From MPC107683
C/2012 F3 (PANSTARRS),h,04/07.4745/2015,11.3439,164.5811,104.1405,1.003935,3.460055,2000,6.5,4.0
# From MPC 90766
C/2012 F6 (Lemmon),e,82.6695,332.4022,304.8359,403.9831,0.0001214,0.99820868,0.0000,03/24.8919/2013,2000,g 10.0,4.0
# From MPC 79344
P/2012 G1 (PANSTARRS),e,11.6925,282.5440,286.1149,4.172871,0.1156250,0.38072240,359.9500,06/01.0/2012,2000,g 15.0,4.0
# From MPC 80046
C/2012 H2 (McNaught),e,92.8006,184.1815,296.0740,16.11401,0.0152370,0.89241221,37.8349,02/17.0/2019,2000,g 15.5,4.0
# From MPC109140
C/2012 J1 (Catalina),h,12/06.3643/2012,34.0943,235.1521,147.1770,1.000572,3.147615,2000,8.0,4.0
# From MPC103843
C/2012 K1 (PANSTARRS),h,08/28.2566/2014,142.2988,317.7901,203.0673,1.000427,1.049252,2000,5.6,3.2
# From MPC 80898
P/2012 K3 (Gibbs),e,13.1910,125.8234,172.1296,3.626289,0.1427284,0.42397133,334.0919,02/17.0/2019,2000,g 15.0,4.0
# From MPC103843
C/2012 K5 (LINEAR),e,92.7592,279.3864,139.2777,634.2239,0.0000617,0.99820278,0.0000,11/28.5287/2012,2000,g 12.0,4.0
# From MPC111766
C/2012 K6 (McNaught),e,135.2150,206.9439,339.0640,2055,0.0000106,0.99835928,0.0000,05/20.7687/2013,2000,g  8.5,4.0
# From MPC100577
C/2012 K8 (Lemmon),e,106.1687,312.7699,75.9246,11032,0.0000009,0.99941357,0.0000,08/19.6709/2014,2000,g  6.0,4.0
# From MPC 88326
C/2012 L1 (LINEAR),e,87.2293,271.9807,140.1174,556.6586,0.0000750,0.99594876,0.0000,12/25.1083/2012,2000,g 10.5,4.0
# From MPC 88326
C/2012 L2 (LINEAR),e,70.8021,270.3580,205.8555,509.1875,0.0000858,0.99702182,0.0000,05/07.0507/2013,2000,g 10.0,4.0
# From MPC 84023
C/2012 L3 (LINEAR),e,134.1277,53.4161,106.9871,281.4398,0.0002087,0.98915203,0.0000,06/08.6276/2012,2000,g 13.0,4.0
# From MPC112389
C/2012 LP26 (Palomar),h,08/17.5616/2015,25.3581,153.9653,145.2114,1.002308,6.537273,2000,6.5,4.0
# From MPC 88326
P/2012 NJ (La Sagra),e,84.5556,315.6168,338.2769,8.453017,0.0401039,0.84769773,97.8889,02/17.0/2019,2000,g 14.5,4.0
# From MPC 84625
C/2012 OP (Siding Spring),e,114.8574,267.2246,351.4072,728.8919,0.0000501,0.99503616,0.0000,12/03.0443/2012,2000,g 13.5,2.0
# From MPC 81470
P/2012 O1 (McNaught),e,7.4336,91.9854,238.1840,3.537663,0.1481253,0.59427943,358.0302,02/17.0/2019,2000,g 17.5,4.0
# From MPC 80899
P/2012 O2 (McNaught),e,24.4847,120.6836,183.3449,3.621947,0.1429851,0.53293064,348.8406,02/17.0/2019,2000,g 17.0,4.0
# From MPC 82720
P/2012 O3 (McNaught),e,16.5983,336.3970,344.6524,4.578357,0.1006096,0.64628626,239.4444,02/17.0/2019,2000,g 16.5,4.0
# From MPC 90767
C/2012 Q1 (Kowalski),e,45.2016,184.4001,138.9939,26.06336,0.0074073,0.63693945,19.0258,02/17.0/2019,2000,g  4.0,4.0
# From MPC 89726
C/2012 S1 (ISON),h,11/28.8382/2013,64.5285,294.8947,345.9249,1.000255,0.012478,2000,8.5,3.2
# From MPC 82720
P/2012 S2 (La Sagra),e,8.6881,51.1913,312.5554,4.406605,0.1065486,0.69090179,254.6959,02/17.0/2019,2000,g 17.0,4.0
# From MPC 88327
C/2012 S3 (PANSTARRS),e,113.0409,121.1753,183.6716,3798,0.0000042,0.99939123,0.0000,08/29.8252/2013,2000,g 10.0,4.0
# From MPC 88327
C/2012 S4 (PANSTARRS),e,126.5628,173.0458,163.3679,2788,0.0000067,0.99844424,0.0000,06/26.2531/2013,2000,g  8.5,4.0
# From MPC 82720
P/2012 SB6 (Lemmon),e,10.9264,8.2920,14.1156,3.831874,0.1313976,0.40512752,295.8860,02/17.0/2019,2000,g 14.0,4.0
# From MPC 82320
P/2012 T2 (PANSTARRS),e,12.5538,73.7415,310.6462,5.743308,0.0716079,0.15971089,152.4493,02/17.0/2019,2000,g 10.0,4.0
# From MPC 80900
P/2012 T3 (PANSTARRS),e,9.5634,114.4006,195.4026,6.155532,0.0645365,0.61642208,160.5175,02/17.0/2019,2000,g 15.0,4.0
# From MPC 84023
C/2012 T4 (McNaught),e,24.1859,99.4127,219.7152,119.6374,0.0007532,0.98377333,0.0000,10/12.2111/2012,2000,g 13.5,4.0
# From MPC 84023
C/2012 T5 (Bressi),h,02/24.1365/2013,72.2656,230.2432,318.3418,1.000452,0.328019,2000,13.0,4.0
# From MPC 82720
C/2012 T6 (Kowalski),e,33.3754,186.1074,197.8779,14.03136,0.0187523,0.87405707,44.4223,02/17.0/2019,2000,g 15.0,4.0
# From MPC 87914
P/2012 TK8 (Tenagra),e,6.3287,288.9701,127.1109,4.145188,0.1167852,0.27277258,245.5862,02/17.0/2019,2000,g 13.0,4.0
# From MPC 95208
C/2012 U1 (PANSTARRS),e,56.3640,26.9604,70.1863,1264,0.0000219,0.99582697,0.0000,07/03.6333/2014,2000,g  7.5,4.0
# From MPC 82720
P/2012 U2 (PANSTARRS),e,10.7377,185.2378,228.4942,7.150938,0.0515418,0.49697431,118.1131,02/17.0/2019,2000,g 12.5,4.0
# From MPC 84024
P/2012 US27 (Siding Spring),e,39.3318,49.1691,0.9119,5.164580,0.0839753,0.64727034,185.5356,02/17.0/2019,2000,g 13.5,4.0
# From MPC 84932
C/2012 V1 (PANSTARRS),e,157.8291,85.2689,123.1569,1084,0.0000276,0.99806694,0.0000,07/18.7431/2013,2000,g 12.0,4.0
# From MPC 88695
C/2012 V2 (LINEAR),e,67.1304,262.1669,217.4653,511.0461,0.0000853,0.99712718,0.0000,08/13.1209/2013,2000,g  9.0,4.0
# From MPC 82721
P/2012 WA34 (Lemmon-PANSTARRS),e,6.1234,94.5080,352.6754,4.782219,0.0942453,0.33743437,209.0877,02/17.0/2019,2000,g 13.5,4.0
# From MPC108592
C/2012 X1 (LINEAR),e,44.3581,112.9274,132.2936,165.4295,0.0004632,0.99032853,0.0000,02/22.2116/2014,2000,g  4.8,3.6
# From MPC 88327
C/2012 X2 (PANSTARRS),e,34.0968,271.0722,215.7444,20.46863,0.0106432,0.76720184,22.8977,02/17.0/2019,2000,g  9.0,4.0
# From MPC 83521
C/2012 Y1 (LINEAR),e,20.9137,193.1766,269.0591,37.37836,0.0043129,0.94564968,9.5934,02/17.0/2019,2000,g 15.0,4.0
# From MPC 83521
C/2012 Y3 (McNaught),e,73.6631,122.7337,235.6140,27.82820,0.0067139,0.93643000,15.9048,02/17.0/2019,2000,g 11.0,4.0
# From MPC103843
C/2013 A1 (Siding Spring),e,129.1035,300.9313,2.4565,3641,0.0000045,0.99961421,0.0000,10/24.2563/2014,2000,g  8.2,2.4
# From MPC 84024
P/2013 A2 (Scotti),e,3.3627,355.8246,134.6280,4.010250,0.1227289,0.45441330,270.4144,02/17.0/2019,2000,g 15.5,4.0
# From MPC 82721
P/2013 AL76 (Catalina),e,144.7911,145.9385,27.2010,6.500630,0.0594663,0.68601781,134.1035,02/17.0/2019,2000,g 16.0,4.0
# From MPC 87915
C/2013 B2 (Catalina),h,06/29.6738/2013,43.4613,332.0522,156.4916,1.000379,3.747141,2000,11.0,4.0
# From MPC111766
C/2013 C2 (Tenagra),e,21.3387,247.5294,309.3868,16.04007,0.0153424,0.42976333,19.2399,02/17.0/2019,2000,g  4.0,4.0
# From MPC 84024
C/2013 D1 (Holvorcem),e,10.0638,294.8758,252.9683,11.31378,0.0258996,0.78133547,55.3153,02/17.0/2019,2000,g 14.0,4.0
# From MPC 90270
C/2013 E1 (McNaught),h,06/17.5690/2013,158.7469,134.0762,311.8454,1.001523,7.802667,2000,5.5,4.0
# From MPC 88327
C/2013 E2 (Iwamoto),e,21.8483,182.3888,95.7429,228.9422,0.0002845,0.99387158,0.0000,03/11.0231/2013,2000,g 11.5,4.0
# From MPC 88695
P/2013 EW90 (Tenagra),e,31.7874,160.3216,346.4578,4.115314,0.1180591,0.19512756,273.7749,02/17.0/2019,2000,g 12.0,4.0
# From MPC 84626
C/2013 F1 (Boattini),h,11/29.8220/2012,79.6168,30.0956,92.1191,1.002088,1.872749,2000,13.0,4.0
# From MPC 88695
C/2013 F2 (Catalina),e,61.8245,344.3055,123.1018,841.5518,0.0000404,0.99259306,0.0000,04/16.8616/2013,2000,g  7.0,4.0
# From MPC 84933
